OBJECT_NAME,OBJECT_ID,EPOCH,MEAN_MOTION,ECCENTRICITY,INCLINATION,RA_OF_ASC_NODE,ARG_OF_PERICENTER,MEAN_ANOMALY,EPHEMERIS_TYPE,CLASSIFICATION_TYPE,NORAD_CAT_ID,ELEMENT_SET_NO,REV_AT_EPOCH,BSTAR,MEAN_MOTION_DOT,MEAN_MOTION_DDOT
STARLINK-4106,2022-083P,2025-07-21T04:35:35.232000,15.0883643,0.0001466,53.2169,133.3575,85.2153,274.9006,0,U,53145,999,16690,2.73E-05,1.46E-06,0
STARLINK-4094,2022-083R,2025-07-21T04:30:16.984512,15.08842014,0.0001429,53.2175,133.3771,92.0695,268.0461,0,U,53147,999,16690,4.16E-05,3.75E-06,0
STARLINK-4021,2022-083T,2025-07-20T22:48:34.655904,15.08834509,0.0001465,53.2181,124.6467,98.0861,262.0297,0,U,53149,999,16637,1.17E-05,-1.01E-06,0
STARLINK-4038,2022-083U,2025-07-20T18:32:48.331968,15.08834568,0.0001526,53.2176,125.2374,92.4381,267.6786,0,U,53150,999,16634,6.60E-05,7.62E-06,0
STARLINK-4040,2022-083V,2025-07-21T02:13:49.958976,15.08837748,0.0001398,53.2183,123.8014,87.6453,272.4699,0,U,53151,999,16702,5.01E-05,5.10E-06,0
STARLINK-4045,2022-083W,2025-07-21T11:56:44.753280,15.08836924,0.0001458,53.2176,121.9833,89.9071,270.2088,0,U,53152,999,16708,4.23E-05,3.86E-06,0
STARLINK-4098,2022-083X,2025-07-21T02:08:31.189632,15.08845507,0.0001366,53.217,123.8167,84.3244,275.7904,0,U,53153,999,16702,7.35E-05,8.82E-06,0
STARLINK-4077,2022-083Y,2025-07-20T12:00:39.463200,15.08838206,0.0001602,53.2193,126.4618,87.8719,272.2456,0,U,53154,999,16630,2.16E-05,5.50E-07,0
STARLINK-4088,2022-083Z,2025-07-20T22:47:09.919968,15.08831478,0.0001483,53.2184,124.4442,90.7861,269.3301,0,U,53155,999,16701,-3.44E-05,-8.36E-06,0
STARLINK-4391,2022-084A,2025-07-21T04:04:32.488608,15.0120356,0.000515,97.651,263.2944,5.7062,354.422,0,U,53189,999,16496,-8.70E-04,-1.12E-04,0
STARLINK-4414,2022-084AA,2025-07-21T03:00:16.284672,15.01260393,0.0001624,97.6577,263.258,107.1902,252.95,0,U,53213,999,16495,2.63E-05,2.79E-06,0
STARLINK-4353,2022-084AB,2025-07-21T03:10:55.915104,15.01261725,0.0003303,97.6558,263.2549,124.0035,236.1503,0,U,53214,999,16495,6.57E-05,7.84E-06,0
STARLINK-4335,2022-084AC,2025-07-20T10:57:48.410784,15.01262544,0.0001811,97.6585,262.6009,94.6144,265.5287,0,U,53215,999,16499,6.72E-05,8.04E-06,0
STARLINK-4376,2022-084AD,2025-07-20T22:17:39.492384,15.01262676,0.0001513,97.6573,263.0572,89.3465,270.7932,0,U,53216,999,16454,7.73E-05,9.34E-06,0
STARLINK-4384,2022-084AF,2025-07-20T21:56:40.771392,15.01260806,0.0002043,97.6553,263.0859,86.7814,273.3644,0,U,53218,999,16506,9.01E-05,1.10E-05,0
STARLINK-4373,2022-084AG,2025-07-20T21:58:59.800224,15.01263501,0.000182,97.6559,263.058,90.7055,269.4378,0,U,53219,999,16454,7.86E-05,9.51E-06,0
STARLINK-4363,2022-084AH,2025-07-21T10:54:49.822848,15.01253037,0.0002038,97.6569,263.586,86.5641,273.5816,0,U,53220,999,16463,-8.72E-05,-1.18E-05,0
STARLINK-4377,2022-084AJ,2025-07-21T14:00:01.000224,15.01246189,0.0002005,97.6554,263.7153,101.4896,273.1933,0,U,53221,999,16464,5.50E-03,7.13E-04,0
STARLINK-4356,2022-084AM,2025-07-21T02:49:37.672032,15.01245055,0.0001762,97.6559,263.2562,92.1598,267.9828,0,U,53224,999,16458,-1.03E-04,-1.38E-05,0
STARLINK-4358,2022-084AN,2025-07-21T10:36:10.147104,15.01261782,0.0002421,97.6548,263.5768,84.2837,275.8663,0,U,53225,999,16462,6.99E-05,8.38E-06,0
STARLINK-4359,2022-084AP,2025-07-20T21:45:40.314240,15.01257958,0.0003337,97.6544,263.0628,80.173,279.9871,0,U,53226,999,16454,1.08E-04,1.32E-05,0
STARLINK-4366,2022-084AQ,2025-07-21T08:45:19.590912,15.00505661,0.0005903,97.6461,263.4917,57.4972,302.6822,0,U,53227,999,16461,-8.55E-03,-1.06E-03,0
STARLINK-4365,2022-084AR,2025-07-20T15:27:05.293728,15.01258269,0.0002454,97.6553,262.7903,90.2072,269.9434,0,U,53228,999,16450,2.52E-05,2.64E-06,0
STARLINK-4367,2022-084AS,2025-07-21T04:06:55.249920,15.01262593,0.0003389,97.6546,263.3102,77.1709,282.9894,0,U,53229,999,16458,8.49E-05,1.03E-05,0
STARLINK-4364,2022-084AT,2025-07-21T02:41:37.563648,15.01257946,0.0002489,97.6554,263.2409,92.7897,267.3612,0,U,53230,999,16495,3.17E-04,4.01E-05,0
STARLINK-4370,2022-084AU,2025-07-21T04:01:36.801984,15.0126192,0.0003667,97.6524,263.3035,76.6323,283.531,0,U,53231,999,16458,-1.52E-04,-2.01E-05,0
STARLINK-4371,2022-084AV,2025-07-21T06:00:00.999648,15.01286832,0.0003487,97.6542,263.3865,71.465,2.866,0,U,53232,999,16459,-3.50E-03,-4.48E-04,0
STARLINK-4372,2022-084AW,2025-07-21T14:00:01.000224,15.01228465,0.0003165,97.6531,263.7141,78.6497,24.7662,0,U,53233,999,16464,5.56E-03,7.21E-04,0
STARLINK-4368,2022-084AX,2025-07-21T03:58:55.532928,15.01260385,0.0003161,97.6529,263.2972,67.1852,292.9706,0,U,53234,999,16459,2.12E-05,2.14E-06,0
STARLINK-4332,2022-084B,2025-07-20T22:20:19.737600,15.01260796,0.0002921,97.6561,263.0489,129.1405,231.0079,0,U,53190,999,16521,8.68E-05,1.06E-05,0
