STARLINK-4106           
1 53145U 22083P   25202.19138000  .00000146  00000+0  27266-4 0  9993
2 53145  53.2169 133.3575 0001466  85.2153 274.9006 15.08836430166902
STARLINK-4094           
1 53147U 22083R   25202.18769658  .00000375  00000+0  41627-4 0  9994
2 53147  53.2175 133.3771 0001429  92.0695 268.0461 15.08842014166909
STARLINK-4021           
1 53149U 22083T   25201.95040111 -.00000101  00000+0  11742-4 0  9999
2 53149  53.2181 124.6467 0001465  98.0861 262.0297 15.08834509166376
STARLINK-4038           
1 53150U 22083U   25201.77278162  .00000762  00000+0  65969-4 0  9992
2 53150  53.2176 125.2374 0001526  92.4381 267.6786 15.08834568166345
STARLINK-4040           
1 53151U 22083V   25202.09293934  .00000510  00000+0  50120-4 0  9997
2 53151  53.2183 123.8014 0001398  87.6453 272.4699 15.08837748167028
STARLINK-4045           
1 53152U 22083W   25202.49774020  .00000386  00000+0  42332-4 0  9999
2 53152  53.2176 121.9833 0001458  89.9071 270.2088 15.08836924167086
STARLINK-4098           
1 53153U 22083X   25202.08924988  .00000882  00000+0  73506-4 0  9993
2 53153  53.2170 123.8167 0001366  84.3244 275.7904 15.08845507167029
STARLINK-4077           
1 53154U 22083Y   25201.50045675  .00000055  00000+0  21575-4 0  9998
2 53154  53.2193 126.4618 0001602  87.8719 272.2456 15.08838206166305
STARLINK-4088           
1 53155U 22083Z   25201.94942037 -.00000836  00000+0 -34445-4 0  9994
2 53155  53.2184 124.4442 0001483  90.7861 269.3301 15.08831478167016
STARLINK-4391           
1 53189U 22084A   25202.16982047 -.00011201  00000+0 -86992-3 0  9993
2 53189  97.6510 263.2944 0005150   5.7062 354.4220 15.01203560164966
STARLINK-4332           
1 53190U 22084B   25201.93078400  .00001057  00000+0  86837-4 0  9993
2 53190  97.6561 263.0489 0002921 129.1405 231.0079 15.01260796165216
STARLINK-4414           
1 53213U 22084AA  25202.12518848  .00000279  00000+0  26284-4 0  9991
2 53213  97.6577 263.2580 0001624 107.1902 252.9500 15.01260393164954
STARLINK-4353           
1 53214U 22084AB  25202.13259161  .00000784  00000+0  65657-4 0  9991
2 53214  97.6558 263.2549 0003303 124.0035 236.1503 15.01261725164957
STARLINK-4335           
1 53215U 22084AC  25201.45681031  .00000804  00000+0  67151-4 0  9995
2 53215  97.6585 262.6009 0001811  94.6144 265.5287 15.01262544164996
STARLINK-4376           
1 53216U 22084AD  25201.92892931  .00000934  00000+0  77306-4 0  9998
2 53216  97.6573 263.0572 0001513  89.3465 270.7932 15.01262676164542
STARLINK-4384           
1 53218U 22084AF  25201.91436078  .00001098  00000+0  90094-4 0  9996
2 53218  97.6553 263.0859 0002043  86.7814 273.3644 15.01260806165068
STARLINK-4373           
1 53219U 22084AG  25201.91596991  .00000951  00000+0  78604-4 0  9998
2 53219  97.6559 263.0580 0001820  90.7055 269.4378 15.01263501164547
STARLINK-4363           
1 53220U 22084AH  25202.45474332 -.00001179  00000+0 -87196-4 0  9995
2 53220  97.6569 263.5860 0002038  86.5641 273.5816 15.01253037164638
STARLINK-4377           
1 53221U 22084AJ  25202.58334491  .00071259  00000+0  54986-2 0  9994
2 53221  97.6554 263.7153 0002005 101.4896 273.1933 15.01246189164640
STARLINK-4356           
1 53224U 22084AM  25202.11779713 -.00001384  00000+0 -10319-3 0  9993
2 53224  97.6559 263.2562 0001762  92.1598 267.9828 15.01245055164589
STARLINK-4358           
1 53225U 22084AN  25202.44178411  .00000838  00000+0  69862-4 0  9997
2 53225  97.6548 263.5768 0002421  84.2837 275.8663 15.01261782164625
STARLINK-4359           
1 53226U 22084AP  25201.90671660  .00001324  00000+0  10762-3 0  9997
2 53226  97.6544 263.0628 0003337  80.1730 279.9871 15.01257958164543
STARLINK-4366           
1 53227U 22084AQ  25202.36481008 -.00106170  00000+0 -85497-2 0  9997
2 53227  97.6461 263.4917 0005903  57.4972 302.6822 15.00505661164617
STARLINK-4365           
1 53228U 22084AR  25201.64381127  .00000264  00000+0  25150-4 0  9996
2 53228  97.6553 262.7903 0002454  90.2072 269.9434 15.01258269164503
STARLINK-4367           
1 53229U 22084AS  25202.17147280  .00001032  00000+0  84912-4 0  9991
2 53229  97.6546 263.3102 0003389  77.1709 282.9894 15.01262593164581
STARLINK-4364           
1 53230U 22084AT  25202.11224032  .00004014  00000+0  31692-3 0  9997
2 53230  97.6554 263.2409 0002489  92.7897 267.3612 15.01257946164954
STARLINK-4370           
1 53231U 22084AU  25202.16778706 -.00002011  00000+0 -15200-3 0  9999
2 53231  97.6524 263.3035 0003667  76.6323 283.5310 15.01261920164583
STARLINK-4371           
1 53232U 22084AV  25202.25001157 -.00044812  00000+0 -35035-2 0  9991
2 53232  97.6542 263.3865 0003487  71.4650   2.8660 15.01286832164591
STARLINK-4372           
1 53233U 22084AW  25202.58334491  .00072071  00000+0  55629-2 0  9995
2 53233  97.6531 263.7141 0003165  78.6497  24.7662 15.01228465164641
STARLINK-4368           
1 53234U 22084AX  25202.16592052  .00000214  00000+0  21246-4 0  9999
2 53234  97.6529 263.2972 0003161  67.1852 292.9706 15.01260385164599
